{"type": "FeatureCollection", "features": [ {"type": "Feature", "properties": {"norad_id": 61182, "name": "GSAT0232 (GALILEO 32)", "group": "gnss", "lat": -27.072552565485783, "lon": 66.83310493894257, "alt_km": 23220.272578413726, "timestamp": "2025-12-27T03:58:44.399247+00:00", "meta": {"OBJECT_NAME": "GSAT0232 (GALILEO 32)", "OBJECT_ID": "2024-167A", "EPOCH": "2025-12-24T18:25:47.943264", "MEAN_MOTION": 1.70473505, "ECCENTRICITY": 0.0001887, "INCLINATION": 55.2374, "RA_OF_ASC_NODE": 226.1008, "ARG_OF_PERICENTER": 202.1814, "MEAN_ANOMALY": 339.8736, "EPHEMERIS_TYPE": 0, "CLASSIFICATION_TYPE": "U", "NORAD_CAT_ID": 61182, "ELEMENT_SET_NO": 999, "REV_AT_EPOCH": 790, "BSTAR": 0, "MEAN_MOTION_DOT": 7.1e-07, "MEAN_MOTION_DDOT": 0}, "tle": {"line1": "1 61182U 24167A   25358.76791601  .00000071  00000+0  00000+0 0  9994", "line2": "2 61182  55.2374 226.1008 0001887 202.1814 339.8736  1.70473505  7904"}}, "geometry": {"type": "Point", "coordinates": [66.83310493894257, -27.072552565485783]}}, {"type": "Feature", "properties": {"norad_id": 61183, "name": "GSAT0226 (GALILEO 31)", "group": "gnss", "lat": -27.147548108662036, "lon": -154.8035517434102, "alt_km": 23228.71548666894, "timestamp": "2025-12-27T03:58:44.399258+00:00", "meta": {"OBJECT_NAME": "GSAT0226 (GALILEO 31)", "OBJECT_ID": "2024-167B", "EPOCH": "2025-12-25T01:44:41.758656", "MEAN_MOTION": 1.70473602, "ECCENTRICITY": 0.00012523, "INCLINATION": 55.236, "RA_OF_ASC_NODE": 226.0978, "ARG_OF_PERICENTER": 109.4084, "MEAN_ANOMALY": 12.3648, "EPHEMERIS_TYPE": 0, "CLASSIFICATION_TYPE": "U", "NORAD_CAT_ID": 61183, "ELEMENT_SET_NO": 999, "REV_AT_EPOCH": 788, "BSTAR": 0, "MEAN_MOTION_DOT": 7.1e-07, "MEAN_MOTION_DDOT": 0}, "tle": {"line1": "1 61183U 24167B   25359.07270554  .00000071  00000+0  00000+0 0  9999", "line2": "2 61183  55.2360 226.0978 0001252 109.4084  12.3648  1.70473602  7889"}}, "geometry": {"type": "Point", "coordinates": [-154.8035517434102, -27.147548108662036]}}, {"type": "Feature", "properties": {"norad_id": 61186, "name": "BEIDOU-3 M25 (C47)", "group": "gnss", "lat": 36.467757239744856, "lon": -20.160873881519326, "alt_km": 21527.922825602844, "timestamp": "2025-12-27T03:58:44.399268+00:00", "meta": {"OBJECT_NAME": "BEIDOU-3 M25 (C47)", "OBJECT_ID": "2024-168B", "EPOCH": "2025-12-26T18:59:26.401920", "MEAN_MOTION": 1.86229914, "ECCENTRICITY": 0.0005395, "INCLINATION": 54.6295, "RA_OF_ASC_NODE": 308.2341, "ARG_OF_PERICENTER": 300.4644, "MEAN_ANOMALY": 215.1716, "EPHEMERIS_TYPE": 0, "CLASSIFICATION_TYPE": "U", "NORAD_CAT_ID": 61186, "ELEMENT_SET_NO": 999, "REV_AT_EPOCH": 857, "BSTAR": 0, "MEAN_MOTION_DOT": -5.8e-07, "MEAN_MOTION_DDOT": 0}, "tle": {"line1": "1 61186U 24168B   25360.79127780 -.00000058  00000+0  00000+0 0  9992", "line2": "2 61186  54.6295 308.2341 0005395 300.4644 215.1716  1.86229914  8574"}}, "geometry": {"type": "Point", "coordinates": [-20.160873881519326, 36.467757239744856]}}, {"type": "Feature", "properties": {"norad_id": 61187, "name": "BEIDOU-3 M27 (C49)", "group": "gnss", "lat": -1.3954457005998986, "lon": 129.17923189168943, "alt_km": 21535.245924600815, "timestamp": "2025-12-27T03:58:44.399280+00:00", "meta": {"OBJECT_NAME": "BEIDOU-3 M27 (C49)", "OBJECT_ID": "2024-168C", "EPOCH": "2025-12-26T02:09:38.712960", "MEAN_MOTION": 1.86230112, "ECCENTRICITY": 0.00025351, "INCLINATION": 54.6256, "RA_OF_ASC_NODE": 308.2421, "ARG_OF_PERICENTER": 341.7609, "MEAN_ANOMALY": 198.677, "EPHEMERIS_TYPE": 0, "CLASSIFICATION_TYPE": "U", "NORAD_CAT_ID": 61187, "ELEMENT_SET_NO": 999, "REV_AT_EPOCH": 603, "BSTAR": 0, "MEAN_MOTION_DOT": -5.6e-07, "MEAN_MOTION_DDOT": 0}, "tle": {"line1": "1 61187U 24168C   25360.09003140 -.00000056  00000+0  00000+0 0  9997", "line2": "2 61187  54.6256 308.2421 0002535 341.7609 198.6770  1.86230112  6039"}}, "geometry": {"type": "Point", "coordinates": [129.17923189168943, -1.3954457005998986]}}, {"type": "Feature", "properties": {"norad_id": 62339, "name": "GPS BIII-7  (PRN 01)", "group": "gnss", "lat": -43.36232873228438, "lon": -157.28691769536627, "alt_km": 20198.135915004703, "timestamp": "2025-12-27T03:58:44.399290+00:00", "meta": {"OBJECT_NAME": "GPS BIII-7  (PRN 01)", "OBJECT_ID": "2024-242A", "EPOCH": "2025-12-26T14:04:39.646272", "MEAN_MOTION": 2.00567975, "ECCENTRICITY": 0.0012885, "INCLINATION": 54.9194, "RA_OF_ASC_NODE": 341.1802, "ARG_OF_PERICENTER": 346.4396, "MEAN_ANOMALY": 192.481, "EPHEMERIS_TYPE": 0, "CLASSIFICATION_TYPE": "U", "NORAD_CAT_ID": 62339, "ELEMENT_SET_NO": 999, "REV_AT_EPOCH": 779, "BSTAR": 0, "MEAN_MOTION_DOT": -6e-07, "MEAN_MOTION_DDOT": 0}, "tle": {"line1": "1 62339U 24242A   25360.58656998 -.00000060  00000+0  00000+0 0  9994", "line2": "2 62339  54.9194 341.1802 0012885 346.4396 192.4810  2.00567975  7794"}}, "geometry": {"type": "Point", "coordinates": [-157.28691769536627, -43.36232873228438]}}, {"type": "Feature", "properties": {"norad_id": 62850, "name": "NVS-02 (IRNSS-1K)", "group": "gnss", "lat": -19.020222248077555, "lon": -153.3976124500299, "alt_km": 25428.46955440633, "timestamp": "2025-12-27T03:58:44.399302+00:00", "meta": {"OBJECT_NAME": "NVS-02 (IRNSS-1K)", "OBJECT_ID": "2025-020A", "EPOCH": "2025-12-26T08:00:18.645696", "MEAN_MOTION": 2.17605261, "ECCENTRICITY": 0.7347253, "INCLINATION": 20.9524, "RA_OF_ASC_NODE": 322.7337, "ARG_OF_PERICENTER": 35.0556, "MEAN_ANOMALY": 356.1261, "EPHEMERIS_TYPE": 0, "CLASSIFICATION_TYPE": "U", "NORAD_CAT_ID": 62850, "ELEMENT_SET_NO": 999, "REV_AT_EPOCH": 721, "BSTAR": 0.00027034, "MEAN_MOTION_DOT": 2.77e-06, "MEAN_MOTION_DDOT": 0}, "tle": {"line1": "1 62850U 25020A   25360.33354914  .00000277  00000+0  27034-3 0  9992", "line2": "2 62850  20.9524 322.7337 7347253  35.0556 356.1261  2.17605261  7211"}}, "geometry": {"type": "Point", "coordinates": [-153.3976124500299, -19.020222248077555]}}, {"type": "Feature", "properties": {"norad_id": 62876, "name": "QZS-6 (QZSS/PRN 200)", "group": "gnss", "lat": -0.004045418054172299, "lon": -113.9036335927714, "alt_km": 35780.72628623013, "timestamp": "2025-12-27T03:58:44.399313+00:00", "meta": {"OBJECT_NAME": "QZS-6 (QZSS/PRN 200)", "OBJECT_ID": "2025-023A", "EPOCH": "2025-12-26T13:27:43.183008", "MEAN_MOTION": 1.00269874, "ECCENTRICITY": 0.00017403, "INCLINATION": 0.0623, "RA_OF_ASC_NODE": 75.3516, "ARG_OF_PERICENTER": 206.9838, "MEAN_ANOMALY": 105.433, "EPHEMERIS_TYPE": 0, "CLASSIFICATION_TYPE": "U", "NORAD_CAT_ID": 62876, "ELEMENT_SET_NO": 999, "REV_AT_EPOCH": 322, "BSTAR": 0, "MEAN_MOTION_DOT": -2.11e-06, "MEAN_MOTION_DDOT": 0}, "tle": {"line1": "1 62876U 25023A   25360.56091647 -.00000211  00000+0  00000+0 0  9998", "line2": "2 62876   0.0623  75.3516 0001740 206.9838 105.4330  1.00269874  3227"}}, "geometry": {"type": "Point", "coordinates": [-113.9036335927714, -0.004045418054172299]}}, {"type": "Feature", "properties": {"norad_id": 63130, "name": "COSMOS 2584 (704K)", "group": "gnss", "lat": -5.778666239408683, "lon": -98.629649994622, "alt_km": 19114.736810429167, "timestamp": "2025-12-27T03:58:44.399324+00:00", "meta": {"OBJECT_NAME": "COSMOS 2584 (704K)", "OBJECT_ID": "2025-042A", "EPOCH": "2025-12-24T02:34:25.549824", "MEAN_MOTION": 2.13102981, "ECCENTRICITY": 0.00077651, "INCLINATION": 64.9819, "RA_OF_ASC_NODE": 78.7588, "ARG_OF_PERICENTER": 220.6893, "MEAN_ANOMALY": 139.3012, "EPHEMERIS_TYPE": 0, "CLASSIFICATION_TYPE": "U", "NORAD_CAT_ID": 63130, "ELEMENT_SET_NO": 999, "REV_AT_EPOCH": 631, "BSTAR": 0, "MEAN_MOTION_DOT": 1e-08, "MEAN_MOTION_DDOT": 0}, "tle": {"line1": "1 63130U 25042A   25358.10724016  .00000001  00000+0  00000+0 0  9999", "line2": "2 63130  64.9819  78.7588 0007765 220.6893 139.3012  2.13102981  6316"}}, "geometry": {"type": "Point", "coordinates": [-98.629649994622, -5.778666239408683]}}, {"type": "Feature", "properties": {"norad_id": 64202, "name": "GPS BIII-8  (PRN 21)", "group": "gnss", "lat": 48.60420050489482, "lon": 90.35671376176809, "alt_km": 20183.716187512022, "timestamp": "2025-12-27T03:58:44.399334+00:00", "meta": {"OBJECT_NAME": "GPS BIII-8  (PRN 21)", "OBJECT_ID": "2025-116A", "EPOCH": "2025-12-26T01:49:27.319296", "MEAN_MOTION": 2.00557298, "ECCENTRICITY": 0.00059923, "INCLINATION": 55.1151, "RA_OF_ASC_NODE": 38.103, "ARG_OF_PERICENTER": 311.0999, "MEAN_ANOMALY": 48.1681, "EPHEMERIS_TYPE": 0, "CLASSIFICATION_TYPE": "U", "NORAD_CAT_ID": 64202, "ELEMENT_SET_NO": 999, "REV_AT_EPOCH": 439, "BSTAR": 0, "MEAN_MOTION_DOT": -5.1e-07, "MEAN_MOTION_DDOT": 0}, "tle": {"line1": "1 64202U 25116A   25360.07601064 -.00000051  00000+0  00000+0 0  9994", "line2": "2 64202  55.1151  38.1030 0005992 311.0999  48.1681  2.00557298  4398"}}, "geometry": {"type": "Point", "coordinates": [90.35671376176809, 48.60420050489482]}}, {"type": "Feature", "properties": {"norad_id": 65590, "name": "COSMOS 2596 (708K)", "group": "gnss", "lat": -47.99380839843694, "lon": -70.64018589314776, "alt_km": 19099.793315095707, "timestamp": "2025-12-27T03:58:44.399346+00:00", "meta": {"OBJECT_NAME": "COSMOS 2596 (708K)", "OBJECT_ID": "2025-206B", "EPOCH": "2025-12-26T12:49:29.791776", "MEAN_MOTION": 2.13100157, "ECCENTRICITY": 0.0014063, "INCLINATION": 64.7367, "RA_OF_ASC_NODE": 320.9961, "ARG_OF_PERICENTER": 307.6587, "MEAN_ANOMALY": 232.6923, "EPHEMERIS_TYPE": 0, "CLASSIFICATION_TYPE": "U", "NORAD_CAT_ID": 65590, "ELEMENT_SET_NO": 999, "REV_AT_EPOCH": 223, "BSTAR": 0, "MEAN_MOTION_DOT": -3.6e-07, "MEAN_MOTION_DDOT": 0}, "tle": {"line1": "1 65590U 25206B   25360.53437259 -.00000036  00000+0  00000+0 0  9992", "line2": "2 65590  64.7367 320.9961 0014063 307.6587 232.6923  2.13100157  2234"}}, "geometry": {"type": "Point", "coordinates": [-70.64018589314776, -47.99380839843694]}}]}